[{"OBJECT_NAME":"MATS","OBJECT_ID":"2022-147A","EPOCH":"2026-03-09T23:39:00.807264","MEAN_MOTION":15.0466868,"ECCENTRICITY":0.00129708,"INCLINATION":97.6844,"RA_OF_ASC_NODE":71.061,"ARG_OF_PERICENTER":166.9988,"MEAN_ANOMALY":193.1575,"EPHEMERIS_TYPE":0,"CLASSIFICATION_TYPE":"U","NORAD_CAT_ID":54227,"ELEMENT_SET_NO":999,"REV_AT_EPOCH":18284,"BSTAR":0.00029670702,"MEAN_MOTION_DOT":4.118e-5,"MEAN_MOTION_DDOT":0},{"OBJECT_NAME":"STARLINK-30464","OBJECT_ID":"2023-146T","EPOCH":"2026-03-09T00:58:39.595584","MEAN_MOTION":15.03351281,"ECCENTRICITY":0.00013307,"INCLINATION":43.0003,"RA_OF_ASC_NODE":316.4432,"ARG_OF_PERICENTER":268.6034,"MEAN_ANOMALY":91.4656,"EPHEMERIS_TYPE":0,"CLASSIFICATION_TYPE":"U","NORAD_CAT_ID":57908,"ELEMENT_SET_NO":999,"REV_AT_EPOCH":13591,"BSTAR":5.903593e-5,"MEAN_MOTION_DOT":6.1e-6,"MEAN_MOTION_DDOT":0}]
